[{"icaoId":"KBWI","receiptTime":"2025-09-22T02:58:45.388Z","obsTime":1758509640,"reportTime":"2025-09-22T03:00:00.000Z","temp":19.4,"dewp":12.8,"wdir":120,"wspd":5,"visib":"10+","altim":1022.8,"slp":1022.7,"qcField":4,"presTend":0.8,"metarType":"METAR","rawOb":"METAR KBWI 220254Z 12005KT 10SM OVC035 19/13 A3020 RMK AO2 SLP227 T01940128 53008","lat":39.1733,"lon":-76.684,"elev":42,"name":"Baltimore-Washington Intl, MD, US","cover":"OVC","clouds":[{"cover":"OVC","base":3500}],"fltCat":"VFR"}]