[{"icaoId":"KPHL","receiptTime":"2025-09-22T03:02:17.064Z","obsTime":1758509640,"reportTime":"2025-09-22T03:00:00.000Z","temp":16.1,"dewp":10.6,"wdir":90,"wspd":4,"visib":"10+","altim":1023.5,"slp":1023.2,"qcField":12,"presTend":0.2,"metarType":"METAR","rawOb":"METAR KPHL 220254Z 09004KT 10SM FEW250 16/11 A3022 RMK AO2 SLP232 T01610106 53002 $","lat":39.8733,"lon":-75.2268,"elev":2,"name":"Philadelphia Intl, PA, US","cover":"FEW","clouds":[{"cover":"FEW","base":25000}],"fltCat":"VFR"}]